{
  "norad_id": 60119,
  "name": "STARLINK-11127 [DTC]",
  "history": [
    {
      "epoch": "2026-03-28T09:48:06.208416Z",
      "apogee_km": 360.61429873436373,
      "perigee_km": 358.83011361656736,
      "latitude_deg": -1.992013732149132e-05,
      "longitude_deg": 156.1045385006865,
      "height_km": 360.5190734296604,
      "semi_major_axis_km": 6737.859206175465,
      "eccentricity": 0.0001324,
      "inclination_deg": 53.1588,
      "raan_deg": 128.9597,
      "arg_perigee_deg": 82.5042,
      "mean_anomaly_deg": 277.6126,
      "mean_motion_rev_day": 15.69711588
    },
    {
      "epoch": "2026-03-29T02:36:37.530144Z",
      "apogee_km": 360.6129861850568,
      "perigee_km": 358.80859054733264,
      "latitude_deg": 3.1446776697164914e-05,
      "longitude_deg": -100.16733940519205,
      "height_km": 360.49206157257794,
      "semi_major_axis_km": 6737.847788366194,
      "eccentricity": 0.0001339,
      "inclination_deg": 53.1587,
      "raan_deg": 125.5086,
      "arg_perigee_deg": 81.5909,
      "mean_anomaly_deg": 278.5261,
      "mean_motion_rev_day": 15.69715578
    },
    {
      "epoch": "2026-03-30T06:06:56.339136Z",
      "apogee_km": 360.4434141358788,
      "perigee_km": 358.9849388702132,
      "latitude_deg": -4.809755853775765e-05,
      "longitude_deg": -159.52526816208717,
      "height_km": 360.5812621416274,
      "semi_major_axis_km": 6737.851176503046,
      "eccentricity": 0.00010823,
      "inclination_deg": 53.1573,
      "raan_deg": 119.8587,
      "arg_perigee_deg": 86.3587,
      "mean_anomaly_deg": 273.7554,
      "mean_motion_rev_day": 15.69714394
    }
  ]
}